O3B MPOWER F1           
1 54755U 22174A   26188.46144068 -.00000009  00000+0  00000+0 0  9998
2 54755   0.0499 339.8437 0006564 138.2113 114.4019  5.00114845 66377
O3B MPOWER F2           
1 54756U 22174B   26188.29911947 -.00000009  00000+0  00000+0 0  9998
2 54756   0.0459 339.9342 0005817 121.1331 258.9987  5.00114954 66451
O3B MPOWER F4           
1 56367U 23059A   26188.36335749 -.00000009  00000+0  00000+0 0  9999
2 56367   0.0630 351.1800 0007713 118.8091 250.0946  5.00115403 59618
O3B MPOWER F3           
1 56368U 23059B   26188.19661471 -.00000009  00000+0  00000+0 0  9995
2 56368   0.0637 350.5946 0006687 112.4767 257.0039  5.00116410 55737
O3B MPOWER F5           
1 58346U 23175A   26188.29760334 -.00000009  00000+0  00000+0 0  9991
2 58346   0.0513   9.8517 0005407 114.1587 236.0416  5.00115886 50449
O3B MPOWER F6           
1 58347U 23175B   26188.19818649 -.00000009  00000+0  00000+0 0  9994
2 58347   0.0534   1.5728 0004443 101.7377 256.7396  5.00115850 49359
O3B MPOWER F7           
1 62362U 24244A   26188.26458123 -.00000009  00000+0  00000+0 0  9999
2 62362   0.0665 344.2337 0005965 117.1791 258.6548  5.00115271 27533
O3B MPOWER F8           
1 62363U 24244B   26188.23152625 -.00000009  00000+0  00000+0 0  9995
2 62363   0.0142 354.2383 0005819 100.5554 265.2733  5.00115072 21877
O3B MPOWER F9           
1 64866U 25153A   26188.36481003 -.00000009  00000+0  00000+0 0  9994
2 64866   0.0605   6.6914 0006639 118.4399 234.9314  5.00115654 20575
O3B MPOWER F10          
1 64867U 25153B   26188.13095825 -.00000010  00000+0  00000+0 0  9995
2 64867   0.0577   3.1759 0002168 246.4591 110.3422  5.00114887 23030
