{"fetched_at":"2026-07-07T18:29:39.989Z","source":"https://celestrak.org/NORAD/elements/gp.php?NAME=O3B&FORMAT=JSON","constellation":"o3b-mpower","records":[{"OBJECT_NAME":"O3B MPOWER F1","OBJECT_ID":"2022-174A","EPOCH":"2026-07-07T11:04:28.474752","CLASSIFICATION_TYPE":"U","MEAN_MOTION":5.00114845,"ECCENTRICITY":0.0006564,"INCLINATION":0.0499,"RA_OF_ASC_NODE":339.8437,"ARG_OF_PERICENTER":138.2113,"MEAN_ANOMALY":114.4019,"EPHEMERIS_TYPE":0,"NORAD_CAT_ID":54755,"ELEMENT_SET_NO":999,"REV_AT_EPOCH":6637,"BSTAR":0,"MEAN_MOTION_DOT":-9e-8,"MEAN_MOTION_DDOT":0},{"OBJECT_NAME":"O3B MPOWER F2","OBJECT_ID":"2022-174B","EPOCH":"2026-07-07T07:10:43.922208","CLASSIFICATION_TYPE":"U","MEAN_MOTION":5.00114954,"ECCENTRICITY":0.0005817,"INCLINATION":0.0459,"RA_OF_ASC_NODE":339.9342,"ARG_OF_PERICENTER":121.1331,"MEAN_ANOMALY":258.9987,"EPHEMERIS_TYPE":0,"NORAD_CAT_ID":54756,"ELEMENT_SET_NO":999,"REV_AT_EPOCH":6645,"BSTAR":0,"MEAN_MOTION_DOT":-9e-8,"MEAN_MOTION_DDOT":0},{"OBJECT_NAME":"O3B MPOWER F4","OBJECT_ID":"2023-059A","EPOCH":"2026-07-07T08:43:14.087136","CLASSIFICATION_TYPE":"U","MEAN_MOTION":5.00115403,"ECCENTRICITY":0.0007713,"INCLINATION":0.063,"RA_OF_ASC_NODE":351.18,"ARG_OF_PERICENTER":118.8091,"MEAN_ANOMALY":250.0946,"EPHEMERIS_TYPE":0,"NORAD_CAT_ID":56367,"ELEMENT_SET_NO":999,"REV_AT_EPOCH":5961,"BSTAR":0,"MEAN_MOTION_DOT":-9e-8,"MEAN_MOTION_DDOT":0},{"OBJECT_NAME":"O3B MPOWER F3","OBJECT_ID":"2023-059B","EPOCH":"2026-07-07T04:43:07.510944","CLASSIFICATION_TYPE":"U","MEAN_MOTION":5.0011641,"ECCENTRICITY":0.0006687,"INCLINATION":0.0637,"RA_OF_ASC_NODE":350.5946,"ARG_OF_PERICENTER":112.4767,"MEAN_ANOMALY":257.0039,"EPHEMERIS_TYPE":0,"NORAD_CAT_ID":56368,"ELEMENT_SET_NO":999,"REV_AT_EPOCH":5573,"BSTAR":0,"MEAN_MOTION_DOT":-9e-8,"MEAN_MOTION_DDOT":0},{"OBJECT_NAME":"O3B MPOWER F5","OBJECT_ID":"2023-175A","EPOCH":"2026-07-07T07:08:32.928576","CLASSIFICATION_TYPE":"U","MEAN_MOTION":5.00115886,"ECCENTRICITY":0.0005407,"INCLINATION":0.0513,"RA_OF_ASC_NODE":9.8517,"ARG_OF_PERICENTER":114.1587,"MEAN_ANOMALY":236.0416,"EPHEMERIS_TYPE":0,"NORAD_CAT_ID":58346,"ELEMENT_SET_NO":999,"REV_AT_EPOCH":5044,"BSTAR":0,"MEAN_MOTION_DOT":-9e-8,"MEAN_MOTION_DDOT":0},{"OBJECT_NAME":"O3B MPOWER F6","OBJECT_ID":"2023-175B","EPOCH":"2026-07-07T04:45:23.312736","CLASSIFICATION_TYPE":"U","MEAN_MOTION":5.0011585,"ECCENTRICITY":0.0004443,"INCLINATION":0.0534,"RA_OF_ASC_NODE":1.5728,"ARG_OF_PERICENTER":101.7377,"MEAN_ANOMALY":256.7396,"EPHEMERIS_TYPE":0,"NORAD_CAT_ID":58347,"ELEMENT_SET_NO":999,"REV_AT_EPOCH":4935,"BSTAR":0,"MEAN_MOTION_DOT":-9e-8,"MEAN_MOTION_DDOT":0},{"OBJECT_NAME":"O3B MPOWER F7","OBJECT_ID":"2024-244A","EPOCH":"2026-07-07T06:20:59.818272","CLASSIFICATION_TYPE":"U","MEAN_MOTION":5.00115271,"ECCENTRICITY":0.0005965,"INCLINATION":0.0665,"RA_OF_ASC_NODE":344.2337,"ARG_OF_PERICENTER":117.1791,"MEAN_ANOMALY":258.6548,"EPHEMERIS_TYPE":0,"NORAD_CAT_ID":62362,"ELEMENT_SET_NO":999,"REV_AT_EPOCH":2753,"BSTAR":0,"MEAN_MOTION_DOT":-9e-8,"MEAN_MOTION_DDOT":0},{"OBJECT_NAME":"O3B MPOWER F8","OBJECT_ID":"2024-244B","EPOCH":"2026-07-07T05:33:23.868000","CLASSIFICATION_TYPE":"U","MEAN_MOTION":5.00115072,"ECCENTRICITY":0.0005819,"INCLINATION":0.0142,"RA_OF_ASC_NODE":354.2383,"ARG_OF_PERICENTER":100.5554,"MEAN_ANOMALY":265.2733,"EPHEMERIS_TYPE":0,"NORAD_CAT_ID":62363,"ELEMENT_SET_NO":999,"REV_AT_EPOCH":2187,"BSTAR":0,"MEAN_MOTION_DOT":-9e-8,"MEAN_MOTION_DDOT":0},{"OBJECT_NAME":"O3B MPOWER F9","OBJECT_ID":"2025-153A","EPOCH":"2026-07-07T08:45:19.586592","CLASSIFICATION_TYPE":"U","MEAN_MOTION":5.00115654,"ECCENTRICITY":0.0006639,"INCLINATION":0.0605,"RA_OF_ASC_NODE":6.6914,"ARG_OF_PERICENTER":118.4399,"MEAN_ANOMALY":234.9314,"EPHEMERIS_TYPE":0,"NORAD_CAT_ID":64866,"ELEMENT_SET_NO":999,"REV_AT_EPOCH":2057,"BSTAR":0,"MEAN_MOTION_DOT":-9e-8,"MEAN_MOTION_DDOT":0},{"OBJECT_NAME":"O3B MPOWER F10","OBJECT_ID":"2025-153B","EPOCH":"2026-07-07T03:08:34.792800","CLASSIFICATION_TYPE":"U","MEAN_MOTION":5.00114887,"ECCENTRICITY":0.0002168,"INCLINATION":0.0577,"RA_OF_ASC_NODE":3.1759,"ARG_OF_PERICENTER":246.4591,"MEAN_ANOMALY":110.3422,"EPHEMERIS_TYPE":0,"NORAD_CAT_ID":64867,"ELEMENT_SET_NO":999,"REV_AT_EPOCH":2303,"BSTAR":0,"MEAN_MOTION_DOT":-1e-7,"MEAN_MOTION_DDOT":0}]}
